OBJECT_NAME,OBJECT_ID,EPOCH,MEAN_MOTION,ECCENTRICITY,INCLINATION,RA_OF_ASC_NODE,ARG_OF_PERICENTER,MEAN_ANOMALY,EPHEMERIS_TYPE,CLASSIFICATION_TYPE,NORAD_CAT_ID,ELEMENT_SET_NO,REV_AT_EPOCH,BSTAR,MEAN_MOTION_DOT,MEAN_MOTION_DDOT
TDRS 13,2017-047A,2026-06-26T03:56:40.079328,1.00272644,.0015048,3.4537,2.9658,107.0979,211.9672,0,U,42915,999,3243,0,-.91E-6,0
QZS-3 (MICHIBIKI-3),2017-048A,2026-06-26T04:35:58.811424,1.00272369,.000227,0.0665,149.5543,301.5001,19.3065,0,U,42917,999,3235,0,-.337E-5,0
AMAZONAS 5,2017-053A,2026-06-24T00:22:44.611968,1.00268513,.00019519,0.0291,328.4439,87.3334,161.0747,0,U,42934,999,3211,0,-.275E-5,0
ASIASAT 9,2017-057A,2026-06-25T16:51:38.719872,1.00263509,.0002312,0.0427,53.5801,31.1880,204.1419,0,U,42942,999,3194,0,0,0
INTELSAT 37E (IS-37E),2017-059A,2026-06-26T03:54:47.756736,1.00269872,.0002926,0.0276,22.2811,73.4959,219.2195,0,U,42950,999,3215,0,0,0
BSAT-4A,2017-059B,2026-06-25T23:23:19.575168,1.00271629,.0004234,0.0353,14.4731,58.8039,301.4903,0,U,42951,999,3188,0,-.339E-5,0
QZS-4 (MICHIBIKI-4),2017-062A,2026-06-25T08:04:47.004960,1.00297191,.0746739,40.1041,343.3808,268.2453,280.8214,0,U,42965,999,3188,0,-.36E-5,0
SES-11 (ECHOSTAR 105),2017-063A,2026-06-26T03:50:38.440896,1.00272985,.0002963,0.0327,303.7756,149.3809,133.8508,0,U,42967,999,3181,0,-.78E-6,0
KOREASAT 5A,2017-067A,2026-06-25T23:24:11.989728,1.00271390,.0000867,0.0088,333.7491,114.9687,289.5950,0,U,42984,999,3161,0,-.347E-5,0
ALCOMSAT 1,2017-078A,2026-06-26T03:52:47.950176,1.00270092,.0002669,0.0204,8.3090,82.3619,217.0184,0,U,43039,999,3138,0,0,0
SBIRS GEO-3 (USA 282),2018-009A,2026-06-25T15:04:38.487072,1.00272880,.000224,2.1900,12.5144,72.7666,255.2393,0,U,43162,999,3092,0,.137E-5,0
AL YAH 3,2018-012A,2026-06-26T03:54:10.317024,1.00272168,.0004141,1.5750,83.0136,9.1070,220.5981,0,U,43174,999,3093,0,-.146E-5,0
SES-14,2018-012B,2026-06-24T12:25:13.513728,1.00271424,.00011576,0.0183,32.4366,58.9659,320.0654,0,U,43175,999,709,0,-.27E-5,0
GOES 17,2018-022A,2026-06-26T04:35:51.819072,1.00272828,.000068,0.9597,85.5608,23.4402,144.7721,0,U,43226,999,3051,0,-.172E-5,0
HISPASAT 30W-6,2018-023A,2026-06-24T03:56:49.337952,1.00273784,.00060437,0.0461,46.3751,28.4050,226.7322,0,U,43228,999,3047,0,-.209E-5,0
SUPERBIRD-B3,2018-033A,2026-06-25T21:55:30.235296,1.00271381,.000152,0.0095,320.6838,148.3501,295.8785,0,U,43271,999,3014,0,-.82E-6,0
HYLAS 4,2018-033B,2026-06-24T19:19:48.484128,1.00269267,.00010305,0.0258,22.8939,96.9112,49.5742,0,U,43272,999,3014,0,0,0
IRNSS-1I,2018-035A,2026-06-24T19:11:38.629824,1.00275960,.00176215,28.7725,74.0767,182.3144,359.3363,0,U,43286,999,3015,0,.66E-6,0
USA 283,2018-036A,2026-06-25T09:48:28.433088,1.00269479,.0000352,0.0077,1.2048,95.8048,97.7845,0,U,43339,999,2537,0,0,0
COSMOS 2526,2018-037A,2026-06-26T01:11:05.727840,1.00269587,.000058,0.0264,47.8004,196.3187,175.8792,0,U,43432,999,3004,0,-.334E-5,0
APSTAR-6C,2018-041A,2026-06-26T04:10:28.638048,1.00271510,.0000762,0.0217,350.3329,20.3750,100.2287,0,U,43450,999,2990,0,-.307E-5,0
BANGABANDHUSAT-1,2018-044A,2026-06-25T14:13:38.607744,1.00268170,.0002204,0.0218,35.0767,61.5691,149.5917,0,U,43463,999,2979,0,0,0
SES-12,2018-049A,2026-06-24T21:43:00.943392,1.00271664,.00004852,0.0123,7.4810,300.7127,25.6053,0,U,43488,999,2949,0,-.26E-5,0
FENGYUN 2H,2018-050A,2026-06-26T02:39:58.099968,1.00269792,.0001677,3.0548,78.9761,124.2863,190.3122,0,U,43491,999,2952,0,-.121E-5,0
BEIDOU-2 IGSO-7,2018-057A,2026-06-25T16:27:37.842624,1.00249090,.0104889,55.1968,162.9827,238.0069,228.9610,0,U,43539,999,2921,0,-.23E-6,0
TELSTAR 19V,2018-059A,2026-06-26T03:26:38.832000,1.00270750,.0002983,0.0107,83.0521,32.3083,147.5694,0,U,43562,999,2923,0,-.269E-5,0
TELKOM 4 (MERAH PUTIH),2018-064A,2026-06-25T18:14:47.169024,1.00270306,.0001696,0.0133,62.7135,56.8461,176.0199,0,U,43587,999,2896,0,-.333E-5,0
TELSTAR 18V,2018-069A,2026-06-25T23:31:18.809184,1.00270510,.0002123,0.0164,329.6094,122.9973,312.3188,0,U,43611,999,2872,0,-.283E-5,0
AZERSPACE 2 (IS-38),2018-074A,2026-06-25T04:15:28.573056,1.00272596,.00015866,0.0035,82.5969,10.3273,289.3716,0,U,43632,999,2852,0,.146E-5,0
HORIZONS-3E,2018-074B,2026-06-24T03:11:02.118624,1.00270268,.00005468,0.0084,244.9552,64.2971,179.8035,0,U,43633,999,2841,0,-.24E-6,0
AEHF-4 (USA 288),2018-079A,2026-06-26T03:26:38.832000,1.00270293,.0060136,1.4346,4.7517,355.9363,257.7178,0,U,43651,999,2838,0,-.265E-5,0
BEIDOU-3 G1,2018-085A,2026-06-25T20:12:11.852640,1.00270924,.0008491,2.8909,97.1394,351.2669,288.5451,0,U,43683,999,2814,0,-.101E-5,0
